NORAD_CAT_ID,OBJECT_NAME,OBJECT_TYPE,EPOCH,MEAN_MOTION,ECCENTRICITY,INCLINATION,RA_OF_ASC_NODE,ARG_OF_PERICENTER,MEAN_ANOMALY,BSTAR,MEAN_MOTION_DOT,MEAN_MOTION_DDOT,TLE_LINE0,TLE_LINE1,TLE_LINE2,SEMIMAJOR_AXIS,PERIOD,APOGEE,PERIGEE,DECAYED
52483.0,STARLINK-3875,PAYLOAD,2024-01-11 04:41:42,15.08847629,0.0001465,53.2178,348.8079,108.2874,251.8277,9.2146e-05,1.179e-05,0.0,0 STARLINK-3875,1 52483U 22049AJ  24011.19562718  .00001179  00000-0  92146-4 0  9990,2 52483  53.2178 348.8079 0001465 108.2874 251.8277 15.08847629 93515,6917.857,95.437,540.736,538.709,0.0
52483.0,STARLINK-3875,PAYLOAD,2024-01-11 22:10:57,15.08842382,0.0001412,53.2173,345.5419,98.1922,261.923,2.2646e-05,7.3e-07,0.0,0 STARLINK-3875,1 52483U 22049AJ  24011.92427338  .00000073  00000-0  22646-4 0  9999,2 52483  53.2173 345.5419 0001412  98.1922 261.9230 15.08842382 94709,6917.873,95.437,540.715,538.761,0.0
52483.0,STARLINK-3875,PAYLOAD,2024-01-12 02:57:06,15.08842971,0.0001467,53.2177,344.6487,83.6033,276.5126,2.005e-05,3.1e-07,0.0,0 STARLINK-3875,1 52483U 22049AJ  24012.12299355  .00000031  00000-0  20050-4 0  9999,2 52483  53.2177 344.6487 0001467  83.6033 276.5126 15.08842971 93653,6917.871,95.437,540.751,538.721,0.0
52483.0,STARLINK-3875,PAYLOAD,2024-01-12 07:43:15,15.08849415,0.0001448,53.2173,343.753,96.0037,264.112,7.4901e-05,9.05e-06,0.0,0 STARLINK-3875,1 52483U 22049AJ  24012.32170665  .00000905  00000-0  74901-4 0  9997,2 52483  53.2173 343.7530 0001448  96.0037 264.1120 15.08849415 93689,6917.852,95.437,540.718,538.715,0.0
52483.0,STARLINK-3875,PAYLOAD,2024-01-12 22:01:44,15.08833543,0.0001476,53.2183,341.0672,104.2764,255.8392,-4.0154e-05,-9.27e-06,0.0,0 STARLINK-3875,1 52483U 22049AJ  24012.91788143 -.00000927  00000-0 -40154-4 0  9997,2 52483  53.2183 341.0672 0001476 104.2764 255.8392 15.08833543 94851,6917.9,95.438,540.786,538.744,0.0
52483.0,STARLINK-3875,PAYLOAD,2024-01-13 04:23:17,15.08836933,0.0001554,53.2178,339.8905,97.5573,262.5596,-1.5143e-06,-3.12e-06,0.0,0 STARLINK-3875,1 52483U 22049AJ  24013.18284009 -.00000312  00000-0 -15143-5 0  9998,2 52483  53.2178 339.8905 0001554  97.5573 262.5596 15.08836933 93810,6917.89,95.438,540.83,538.68,0.0
52483.0,STARLINK-3875,PAYLOAD,2024-01-13 07:34:03,15.08839725,0.0001544,53.2172,339.2917,110.3213,249.7945,2.9389e-05,1.8e-06,0.0,0 STARLINK-3875,1 52483U 22049AJ  24013.31531667  .00000180  00000-0  29389-4 0  9995,2 52483  53.2172 339.2917 0001544 110.3213 249.7945 15.08839725 94914,6917.881,95.438,540.814,538.678,0.0
52483.0,STARLINK-3875,PAYLOAD,2024-01-14 04:14:03,15.0884709,0.000153,53.2179,335.4242,115.8966,244.2184,9.3704e-05,1.204e-05,0.0,0 STARLINK-3875,1 52483U 22049AJ  24014.17643327  .00001204  00000-0  93704-4 0  9997,2 52483  53.2179 335.4242 0001530 115.8966 244.2184 15.08847090 93963,6917.859,95.437,540.782,538.665,0.0
52483.0,STARLINK-3875,PAYLOAD,2024-01-14 07:24:50,15.08847595,0.0001529,53.2178,334.8296,116.1782,243.9367,0.00010219,1.339e-05,0.0,0 STARLINK-3875,1 52483U 22049AJ  24014.30891291  .00001339  00000-0  10219-3 0  9995,2 52483  53.2178 334.8296 0001529 116.1782 243.9367 15.08847595 95064,6917.857,95.437,540.78,538.664,0.0
52483.0,STARLINK-3875,PAYLOAD,2024-01-14 21:43:19,15.08839865,0.0001471,53.2176,332.1531,105.157,254.9585,8.4213e-05,1.053e-05,0.0,0 STARLINK-3875,1 52483U 22049AJ  24014.90508107  .00001053  00000-0  84213-4 0  9991,2 52483  53.2176 332.1531 0001471 105.1570 254.9585 15.08839865 95159,6917.881,95.438,540.763,538.728,0.0
52483.0,STARLINK-3875,PAYLOAD,2024-01-15 00:54:05,15.08843947,0.0001499,53.2186,331.5583,93.0012,267.1151,0.00013507,1.863e-05,0.0,0 STARLINK-3875,1 52483U 22049AJ  24015.03755804  .00001863  00000-0  13507-3 0  9990,2 52483  53.2186 331.5583 0001499  93.0012 267.1151 15.08843947 94099,6917.868,95.437,540.77,538.696,0.0
52483.0,STARLINK-3875,PAYLOAD,2024-01-15 04:04:50,15.08849178,0.0001571,53.2192,330.9626,97.0647,263.0524,0.00015875,2.24e-05,0.0,0 STARLINK-3875,1 52483U 22049AJ  24015.17003400  .00002240  00000-0  15875-3 0  9993,2 52483  53.2192 330.9626 0001571  97.0647 263.0524 15.08849178 95199,6917.852,95.437,540.804,538.631,0.0
52483.0,STARLINK-3875,PAYLOAD,2024-01-16 05:31:01,15.08841431,0.0001649,53.2178,326.2071,86.9912,273.1269,1.0849e-05,-1.15e-06,0.0,0 STARLINK-3875,1 52483U 22049AJ  24016.22988153 -.00000115  00000-0  10849-4 0  9994,2 52483  53.2178 326.2071 0001649  86.9912 273.1269 15.08841431 94273,6917.876,95.437,540.882,538.6,0.0
52483.0,STARLINK-3875,PAYLOAD,2024-01-17 03:46:25,15.08847338,0.0001481,53.2184,322.0469,92.618,267.4982,4.5138e-05,4.31e-06,0.0,0 STARLINK-3875,1 52483U 22049AJ  24017.15724018  .00000431  00000-0  45138-4 0  9994,2 52483  53.2184 322.0469 0001481  92.6180 267.4982 15.08847338 95495,6917.858,95.437,540.747,538.698,0.0
52483.0,STARLINK-3875,PAYLOAD,2024-01-18 03:37:13,15.08842766,0.0001782,53.2194,317.5842,75.0412,285.0778,7.8245e-05,9.57e-06,0.0,0 STARLINK-3875,1 52483U 22049AJ  24018.15084799  .00000957  00000-0  78245-4 0  9998,2 52483  53.2194 317.5842 0001782  75.0412 285.0778 15.08842766 94563,6917.872,95.437,540.97,538.504,0.0
52483.0,STARLINK-3875,PAYLOAD,2024-01-19 01:52:36,15.08846911,0.0001712,53.2187,313.428,79.9762,280.1424,0.00010656,1.409e-05,0.0,0 STARLINK-3875,1 52483U 22049AJ  24019.07820520  .00001409  00000-0  10656-3 0  9994,2 52483  53.2187 313.4280 0001712  79.9762 280.1424 15.08846911 95785,6917.859,95.437,540.909,538.54,0.0
52483.0,STARLINK-3875,PAYLOAD,2024-01-19 22:32:37,15.08850841,0.0001797,53.2184,309.5647,122.342,237.7747,2.8522e-05,1.66e-06,0.0,0 STARLINK-3875,1 52483U 22049AJ  24019.93932061  .00000166  00000-0  28522-4 0  9994,2 52483  53.2184 309.5647 0001797 122.3420 237.7747 15.08850841 95910,6917.847,95.437,540.955,538.469,0.0
52483.0,STARLINK-3875,PAYLOAD,2024-01-20 01:43:23,15.08849847,0.0001721,53.2191,308.9643,82.1116,278.0071,9.3114e-05,1.195e-05,0.0,0 STARLINK-3875,1 52483U 22049AJ  24020.07180074  .00001195  00000-0  93114-4 0  9992,2 52483  53.2191 308.9643 0001721  82.1116 278.0071 15.08849847 94853,6917.85,95.437,540.906,538.525,0.0
52483.0,STARLINK-3875,PAYLOAD,2024-01-20 19:12:38,15.08843791,0.0001488,53.2179,305.689,76.7181,283.3977,-6.842e-05,-1.377e-05,0.0,0 STARLINK-3875,1 52483U 22049AJ  24020.80044861 -.00001377  00000-0 -68420-4 0  9992,2 52483  53.2179 305.6890 0001488  76.7181 283.3977 15.08843791 94966,6917.869,95.437,540.763,538.704,0.0
52483.0,STARLINK-3875,PAYLOAD,2024-01-20 22:23:24,15.08843991,0.0001495,53.2184,305.0975,93.5006,266.6157,-8.1496e-05,-1.585e-05,0.0,0 STARLINK-3875,1 52483U 22049AJ  24020.93292750 -.00001585  00000-0 -81496-4 0  9997,2 52483  53.2184 305.0975 0001495  93.5006 266.6157 15.08843991 96060,6917.868,95.437,540.767,538.699,0.0
52483.0,STARLINK-3875,PAYLOAD,2024-01-21 01:34:11,15.08845541,0.000154,53.2186,304.5017,97.8234,262.2933,-7.7889e-05,-1.528e-05,0.0,0 STARLINK-3875,1 52483U 22049AJ  24021.06540570 -.00001528  00000-0 -77889-4 0  9996,2 52483  53.2186 304.5017 0001540  97.8234 262.2933 15.08845541 96083,6917.863,95.437,540.794,538.663,0.0
52483.0,STARLINK-3875,PAYLOAD,2024-01-21 22:14:11,15.08831054,0.0001788,53.2186,300.6388,111.0848,249.0335,0.00023066,3.384e-05,0.0,0 STARLINK-3875,1 52483U 22049AJ  24021.92652699  .00003384  00000-0  23066-3 0  9994,2 52483  53.2186 300.6388 0001788 111.0848 249.0335 15.08831054 96213,6917.908,95.438,541.01,538.536,0.0
52483.0,STARLINK-3875,PAYLOAD,2024-01-22 01:24:58,15.08792102,0.0002111,53.2193,300.0446,107.0303,253.092,0.00092183,0.00014394,0.0,0 STARLINK-3875,1 52483U 22049AJ  24022.05901572  .00014394  00000-0  92183-3 0  9995,2 52483  53.2193 300.0446 0002111 107.0303 253.0920 15.08792102 95159,6918.027,95.441,541.352,538.431,0.0
52483.0,STARLINK-3875,PAYLOAD,2024-01-22 22:04:59,15.08833104,0.0001888,53.2187,296.1788,120.9984,239.1194,8.6962e-05,1.096e-05,0.0,0 STARLINK-3875,1 52483U 22049AJ  24022.92013233  .00001096  00000-0  86962-4 0  9993,2 52483  53.2187 296.1788 0001888 120.9984 239.1194 15.08833104 96365,6917.901,95.438,541.073,538.46,0.0
52483.0,STARLINK-3875,PAYLOAD,2024-01-23 01:15:45,15.08835224,0.0001564,53.2184,295.585,109.3024,250.8138,0.00011274,1.506e-05,0.0,0 STARLINK-3875,1 52483U 22049AJ  24023.05261192  .00001506  00000-0  11274-3 0  9996,2 52483  53.2184 295.5850 0001564 109.3024 250.8138 15.08835224 95308,6917.895,95.438,540.842,538.678,0.0
52483.0,STARLINK-3875,PAYLOAD,2024-01-23 21:55:46,15.0884416,0.000148,53.2181,291.7164,109.299,250.8162,4.844e-05,4.83e-06,0.0,0 STARLINK-3875,1 52483U 22049AJ  24023.91372926  .00000483  00000-0  48440-4 0  9998,2 52483  53.2181 291.7164 0001480 109.2990 250.8162 15.08844160 96519,6917.868,95.437,540.757,538.709,0.0
52483.0,STARLINK-3875,PAYLOAD,2024-01-24 01:06:32,15.08846231,0.0001366,53.2176,291.1212,93.1984,266.9165,8.3181e-05,1.036e-05,0.0,0 STARLINK-3875,1 52483U 22049AJ  24024.04620624  .00001036  00000-0  83181-4 0  9990,2 52483  53.2176 291.1212 0001366  93.1984 266.9165 15.08846231 95452,6917.861,95.437,540.671,538.781,0.0
52483.0,STARLINK-3875,PAYLOAD,2024-01-24 21:46:34,15.08817859,0.0001721,53.218,287.2569,67.5047,292.6127,0.00062411,9.653e-05,0.0,0 STARLINK-3875,1 52483U 22049AJ  24024.90734376  .00009653  00000-0  62411-3 0  9990,2 52483  53.2180 287.2569 0001721  67.5047 292.6127 15.08817859 96660,6917.948,95.439,541.004,538.622,0.0
52483.0,STARLINK-3875,PAYLOAD,2024-01-25 00:57:20,15.08840966,0.0001546,53.2182,286.6649,57.641,302.4732,8.7022e-05,1.097e-05,0.0,0 STARLINK-3875,1 52483U 22049AJ  24025.03981507  .00001097  00000-0  87022-4 0  9995,2 52483  53.2182 286.6649 0001546  57.6410 302.4732 15.08840966 95603,6917.877,95.437,540.812,538.673,0.0
52483.0,STARLINK-3875,PAYLOAD,2024-01-25 21:37:21,15.08837672,0.0001821,53.2188,282.7962,59.6646,300.4526,-1.1209e-05,-4.67e-06,0.0,0 STARLINK-3875,1 52483U 22049AJ  24025.90094200 -.00000467  00000-0 -11209-4 0  9992,2 52483  53.2188 282.7962 0001821  59.6646 300.4526 15.08837672 96816,6917.888,95.438,541.012,538.493,0.0
